IRIDIUM 116             
1 43072U 17083C   25116.13878594  .00000007  00000+0 -47316-5 0  9998
2 43072  86.3955 136.3681 0002372  96.7985 263.3481 14.34216986384398
IRIDIUM 130             
1 43073U 17083D   25116.52568490  .00000077  00000+0  20343-4 0  9999
2 43073  86.3959 136.4410 0002349 101.4726 258.6734 14.34217507384393
IRIDIUM 151             
1 43074U 17083E   25115.80262951  .00000057  00000+0  13285-4 0  9998
2 43074  86.3952 136.5570 0002485  96.2562 263.8917 14.34217386384313
IRIDIUM 134             
1 43075U 17083F   25116.53836918  .00000081  00000+0  21770-4 0  9995
2 43075  86.3954 136.2523 0002183  99.5943 260.5499 14.34218323384383
IRIDIUM 137             
1 43076U 17083G   25116.55105683  .00000035  00000+0  52681-5 0  9991
2 43076  86.3957 136.3309 0002936  95.4505 264.7026 14.34217892384455
IRIDIUM 141             
1 43077U 17083H   25116.54470707  .00000239  00000+0  78382-4 0  9994
2 43077  86.3950 136.1878 0002132  86.7816 273.3624 14.34219669384458
IRIDIUM 153             
1 43078U 17083J   25116.21781635  .00000036  00000+0  58494-5 0  9992
2 43078  86.3923 104.7996 0001970  80.1138 280.0280 14.34217835385519
IRIDIUM 131             
1 43079U 17083K   25116.53202746  .00000072  00000+0  18588-4 0  9998
2 43079  86.3956 136.3516 0002364  87.0349 273.1117 14.34218171384383
